NORAD_CAT_ID,OBJECT_NAME,OBJECT_TYPE,EPOCH,MEAN_MOTION,ECCENTRICITY,INCLINATION,RA_OF_ASC_NODE,ARG_OF_PERICENTER,MEAN_ANOMALY,BSTAR,MEAN_MOTION_DOT,MEAN_MOTION_DDOT,TLE_LINE0,TLE_LINE1,TLE_LINE2,SEMIMAJOR_AXIS,PERIOD,APOGEE,PERIGEE,DECAYED
52627.0,STARLINK-3992,PAYLOAD,2023-09-18 14:21:47,15.08845024,0.0001494,53.2189,3.26,89.5988,270.5175,0.00019444,2.808e-05,0.0,0 STARLINK-3992,1 52627U 22052AF  23261.59846776  .00002808  00000-0  19444-3 0  9992,2 52627  53.2189   3.2600 0001494  89.5988 270.5175 15.08845024 74665,6917.865,95.437,540.764,538.697,0.0
52627.0,STARLINK-3992,PAYLOAD,2023-09-19 14:12:33,15.08864553,0.0001511,53.2181,358.7984,79.9152,280.201,0.00046518,7.128e-05,0.0,0 STARLINK-3992,1 52627U 22052AF  23262.59205728  .00007128  00000-0  46518-3 0  9991,2 52627  53.2181 358.7984 0001511  79.9152 280.2010 15.08864553 75188,6917.805,95.436,540.716,538.625,0.0
52627.0,STARLINK-3992,PAYLOAD,2023-09-20 06:06:26,15.08834449,0.0001657,53.2182,355.8265,98.9153,261.2027,-0.00020789,-3.595e-05,0.0,0 STARLINK-3992,1 52627U 22052AF  23263.25446957 -.00003595  00000-0 -20789-3 0  9994,2 52627  53.2182 355.8265 0001657  98.9153 261.2027 15.08834449 75281,6917.897,95.438,540.909,538.616,0.0
52627.0,STARLINK-3992,PAYLOAD,2023-09-20 12:27:59,15.08816558,0.000154,53.2177,354.6358,81.8312,278.2855,-0.00034648,-5.794e-05,0.0,0 STARLINK-3992,1 52627U 22052AF  23263.51943674 -.00005794  00000-0 -34648-3 0  9993,2 52627  53.2177 354.6358 0001540  81.8312 278.2855 15.08816558 74955,6917.952,95.439,540.882,538.752,0.0
52627.0,STARLINK-3992,PAYLOAD,2023-09-21 10:43:23,15.08850558,0.0001631,53.2173,350.4724,70.6155,289.5014,0.0011256,0.00017676,0.0,0 STARLINK-3992,1 52627U 22052AF  23264.44680035  .00017676  00000-0  11256-2 0  9994,2 52627  53.2173 350.4724 0001631  70.6155 289.5014 15.08850558 75461,6917.848,95.437,540.841,538.585,0.0
52627.0,STARLINK-3992,PAYLOAD,2023-09-22 10:34:09,15.08863967,0.0001722,53.2173,346.012,120.542,239.5742,0.0012826,0.00020197,0.0,0 STARLINK-3992,1 52627U 22052AF  23265.44039280  .00020197  00000-0  12826-2 0  9991,2 52627  53.2173 346.0120 0001722 120.5420 239.5742 15.08863967 75611,6917.807,95.436,540.863,538.481,0.0
52627.0,STARLINK-3992,PAYLOAD,2023-09-22 12:09:33,15.08852275,0.0001702,53.2182,345.7157,64.0924,296.0243,0.00072095,0.00011208,0.0,0 STARLINK-3992,1 52627U 22052AF  23265.50663605  .00011208  00000-0  72095-3 0  9990,2 52627  53.2182 345.7157 0001702  64.0924 296.0243 15.08852275 75250,6917.843,95.437,540.885,538.53,0.0
52627.0,STARLINK-3992,PAYLOAD,2023-09-23 12:00:20,15.08849158,0.0001504,53.217,341.2511,85.2967,274.8197,0.00022014,3.218e-05,0.0,0 STARLINK-3992,1 52627U 22052AF  23266.50023161  .00003218  00000-0  22014-3 0  9996,2 52627  53.2170 341.2511 0001504  85.2967 274.8197 15.08849158 75779,6917.852,95.437,540.758,538.677,0.0
52627.0,STARLINK-3992,PAYLOAD,2023-09-23 21:32:38,15.08843545,0.0001485,53.217,339.4667,80.2048,279.9112,9.0841e-05,1.158e-05,0.0,0 STARLINK-3992,1 52627U 22052AF  23266.89767307  .00001158  00000-0  90841-4 0  9990,2 52627  53.2170 339.4667 0001485  80.2048 279.9112 15.08843545 75837,6917.87,95.437,540.762,538.707,0.0
52627.0,STARLINK-3992,PAYLOAD,2023-09-24 10:15:44,15.08840499,0.0001611,53.2176,337.0911,88.9206,271.1971,7.8041e-05,9.54e-06,0.0,0 STARLINK-3992,1 52627U 22052AF  23267.42759638  .00000954  00000-0  78041-4 0  9999,2 52627  53.2176 337.0911 0001611  88.9206 271.1971 15.08840499 75541,6917.879,95.438,540.858,538.629,0.0
52627.0,STARLINK-3992,PAYLOAD,2023-09-25 11:41:54,15.08852495,0.0001558,53.2165,332.3342,91.7861,268.331,0.00042352,6.461e-05,0.0,0 STARLINK-3992,1 52627U 22052AF  23268.48743375  .00006461  00000-0  42352-3 0  9991,2 52627  53.2165 332.3342 0001558  91.7861 268.3310 15.08852495 75706,6917.842,95.437,540.785,538.629,0.0
52627.0,STARLINK-3992,PAYLOAD,2023-09-26 09:57:18,15.08838293,0.0001544,53.2171,328.169,84.0878,276.029,5.0776e-05,5.2e-06,0.0,0 STARLINK-3992,1 52627U 22052AF  23269.41479911  .00000520  00000-0  50776-4 0  9997,2 52627  53.2171 328.1690 0001544  84.0878 276.0290 15.08838293 76210,6917.886,95.438,540.819,538.682,0.0
52627.0,STARLINK-3992,PAYLOAD,2023-09-26 13:08:04,15.08844086,0.0001513,53.2172,327.5741,87.1501,272.9664,0.00013268,1.824e-05,0.0,0 STARLINK-3992,1 52627U 22052AF  23269.54727631  .00001824  00000-0  13268-3 0  9998,2 52627  53.2172 327.5741 0001513  87.1501 272.9664 15.08844086 75861,6917.868,95.437,540.78,538.686,0.0
52627.0,STARLINK-3992,PAYLOAD,2023-09-27 11:23:28,15.08845953,0.000153,53.2161,323.4122,87.5027,272.614,0.00014499,2.021e-05,0.0,0 STARLINK-3992,1 52627U 22052AF  23270.47463456  .00002021  00000-0  14499-3 0  9991,2 52627  53.2161 323.4122 0001530  87.5027 272.6140 15.08845953 76000,6917.862,95.437,540.786,538.669,0.0
52627.0,STARLINK-3992,PAYLOAD,2023-09-27 22:31:10,15.08836762,0.0001427,53.2171,321.3295,101.6276,258.4876,4.0888e-05,3.63e-06,0.0,0 STARLINK-3992,1 52627U 22052AF  23270.93831903  .00000363  00000-0  40888-4 0  9997,2 52627  53.2171 321.3295 0001427 101.6276 258.4876 15.08836762 76442,6917.89,95.438,540.742,538.768,0.0
52627.0,STARLINK-3992,PAYLOAD,2023-09-28 09:38:53,15.08829319,0.0001696,53.2157,319.2495,74.6395,285.4785,2.1566e-05,5.5e-07,0.0,0 STARLINK-3992,1 52627U 22052AF  23271.40200697  .00000055  00000-0  21566-4 0  9990,2 52627  53.2157 319.2495 0001696  74.6395 285.4785 15.08829319 76510,6917.913,95.438,540.951,538.605,0.0
52627.0,STARLINK-3992,PAYLOAD,2023-09-28 12:49:39,15.08838127,0.0001341,53.2157,318.6489,107.606,252.5078,4.3326e-05,4.02e-06,0.0,0 STARLINK-3992,1 52627U 22052AF  23271.53448203  .00000402  00000-0  43326-4 0  9995,2 52627  53.2157 318.6489 0001341 107.6060 252.5078 15.08838127 76167,6917.886,95.438,540.679,538.823,0.0
52627.0,STARLINK-3992,PAYLOAD,2023-09-29 09:29:40,15.08842328,0.0001675,53.2172,314.7875,96.7993,263.319,4.8793e-05,4.89e-06,0.0,0 STARLINK-3992,1 52627U 22052AF  23272.39560334  .00000489  00000-0  48793-4 0  9998,2 52627  53.2172 314.7875 0001675  96.7993 263.3190 15.08842328 76290,6917.873,95.437,540.897,538.58,0.0
52627.0,STARLINK-3992,PAYLOAD,2023-09-30 09:20:26,15.08847361,0.0001639,53.2161,310.3271,99.9618,260.1559,0.0005126,7.881e-05,0.0,0 STARLINK-3992,1 52627U 22052AF  23273.38920025  .00007881  00000-0  51260-3 0  9990,2 52627  53.2161 310.3271 0001639  99.9618 260.1559 15.08847361 76813,6917.858,95.437,540.857,538.589,0.0
52627.0,STARLINK-3992,PAYLOAD,2023-09-30 12:31:12,15.08859814,0.000164,53.2158,309.7313,100.5167,259.601,0.00029593,4.427e-05,0.0,0 STARLINK-3992,1 52627U 22052AF  23273.52167180  .00004427  00000-0  29593-3 0  9998,2 52627  53.2158 309.7313 0001640 100.5167 259.6010 15.08859814 76831,6917.82,95.436,540.819,538.55,0.0
52627.0,STARLINK-3992,PAYLOAD,2023-10-01 02:49:41,15.0883429,0.0001161,53.2162,307.0581,72.9193,287.1926,-2.4371e-06,-3.27e-06,0.0,0 STARLINK-3992,1 52627U 22052AF  23274.11784521 -.00000327  00000-0 -24371-5 0  9996,2 52627  53.2162 307.0581 0001161  72.9193 287.1926 15.08834290 76926,6917.898,95.438,540.566,538.96,0.0
52627.0,STARLINK-3992,PAYLOAD,2023-10-01 09:11:13,15.08850889,0.0001597,53.2157,305.8675,94.91,265.2075,0.00018884,2.72e-05,0.0,0 STARLINK-3992,1 52627U 22052AF  23274.38279696  .00002720  00000-0  18884-3 0  9994,2 52627  53.2157 305.8675 0001597  94.9100 265.2075 15.08850889 76963,6917.847,95.437,540.817,538.607,0.0
52627.0,STARLINK-3992,PAYLOAD,2023-10-01 12:21:59,15.08855132,0.0001574,53.2154,305.2713,95.2877,264.8295,0.00026415,3.92e-05,0.0,0 STARLINK-3992,1 52627U 22052AF  23274.51527436  .00003920  00000-0  26415-3 0  9999,2 52627  53.2154 305.2713 0001574  95.2877 264.8295 15.08855132 76614,6917.834,95.437,540.788,538.61,0.0
52627.0,STARLINK-3992,PAYLOAD,2023-10-01 18:43:32,15.08858855,0.0001577,53.2153,304.082,96.076,264.0412,0.00047824,7.335e-05,0.0,0 STARLINK-3992,1 52627U 22052AF  23274.78023202  .00007335  00000-0  47824-3 0  9991,2 52627  53.2153 304.0820 0001577  96.0760 264.0412 15.08858855 76654,6917.823,95.436,540.779,538.597,0.0
52627.0,STARLINK-3992,PAYLOAD,2023-10-02 02:40:28,15.08826112,0.0001638,53.2156,302.595,91.172,268.9459,0.00034415,5.191e-05,0.0,0 STARLINK-3992,1 52627U 22052AF  23275.11144482  .00005191  00000-0  34415-3 0  9993,2 52627  53.2156 302.5950 0001638  91.1720 268.9459 15.08826112 77076,6917.923,95.438,540.921,538.655,0.0
52627.0,STARLINK-3992,PAYLOAD,2023-10-02 09:02:01,15.08827633,0.0001615,53.2154,301.4057,90.6283,269.4894,0.00015105,2.116e-05,0.0,0 STARLINK-3992,1 52627U 22052AF  23275.37640682  .00002116  00000-0  15105-3 0  9993,2 52627  53.2154 301.4057 0001615  90.6283 269.4894 15.08827633 76744,6917.918,95.438,540.9,538.666,0.0
52627.0,STARLINK-3992,PAYLOAD,2023-10-03 10:28:11,15.08850241,0.0001592,53.2148,296.6476,93.3864,266.7311,0.00073331,0.00011405,0.0,0 STARLINK-3992,1 52627U 22052AF  23276.43624846  .00011405  00000-0  73331-3 0  9991,2 52627  53.2148 296.6476 0001592  93.3864 266.7311 15.08850241 77270,6917.849,95.437,540.815,538.613,0.0
52627.0,STARLINK-3992,PAYLOAD,2023-10-03 23:11:16,15.08846179,0.0001745,53.2153,294.2687,112.7712,247.3464,0.00028238,4.21e-05,0.0,0 STARLINK-3992,1 52627U 22052AF  23276.96616774  .00004210  00000-0  28238-3 0  9992,2 52627  53.2153 294.2687 0001745 112.7712 247.3464 15.08846179 77350,6917.862,95.437,540.934,538.519,0.0
52627.0,STARLINK-3992,PAYLOAD,2023-10-04 08:43:35,15.08852898,0.0001733,53.2153,292.4842,113.2015,246.916,0.00042719,6.52e-05,0.0,0 STARLINK-3992,1 52627U 22052AF  23277.36360519  .00006520  00000-0  42719-3 0  9996,2 52627  53.2153 292.4842 0001733 113.2015 246.9160 15.08852898 77041,6917.841,95.437,540.905,538.507,0.0
52627.0,STARLINK-3992,PAYLOAD,2023-10-04 18:15:54,15.08847175,0.0001801,53.2147,290.6997,87.5344,272.5854,0.0003327,5.012e-05,0.0,0 STARLINK-3992,1 52627U 22052AF  23277.76104812  .00005012  00000-0  33270-3 0  9999,2 52627  53.2147 290.6997 0001801  87.5344 272.5854 15.08847175 77103,6917.858,95.437,540.969,538.478,0.0
